{
  "type": "FeatureCollection",
  "features": [
    {
      "type": "Feature",
      "properties": {
        "norad_id": 34121,
        "name": "COSMOS 2251 DEB",
        "group": "cosmos-2251-debris",
        "lat": -9.665422858307728,
        "lon": -98.43649645130218,
        "alt_km": 927.4177150660435,
        "timestamp": "2025-12-23T11:34:48.554361+00:00",
        "meta_object_name": "COSMOS 2251 DEB",
        "meta_object_id": "1993-036KS",
        "meta_epoch": "2025-12-22T16:28:59.522592",
        "meta_mean_motion": 13.91964229,
        "meta_eccentricity": 0.02409262,
        "meta_inclination": 73.9923,
        "meta_ra_of_asc_node": 80.1242,
        "meta_arg_of_pericenter": 283.4945,
        "meta_mean_anomaly": 243.4023,
        "meta_ephemeris_type": 0,
        "meta_classification_type": "U",
        "meta_norad_cat_id": 34121,
        "meta_element_set_no": 999,
        "meta_rev_at_epoch": 85263,
        "meta_bstar": 0.0010805556,
        "meta_mean_motion_dot": 1.722e-05,
        "meta_mean_motion_ddot": 0,
        "tle_line1": "1 34121U 93036KS  25356.68680003  .00001722  00000+0  10806-2 0  9992",
        "tle_line2": "2 34121  73.9923  80.1242 0240926 283.4945 243.4023 13.91964229852639"
      },
      "geometry": {
        "type": "Point",
        "coordinates": [
          -98.43649645130218,
          -9.665422858307728
        ]
      }
    },
    {
      "type": "Feature",
      "properties": {
        "norad_id": 34122,
        "name": "COSMOS 2251 DEB",
        "group": "cosmos-2251-debris",
        "lat": 28.96997776588218,
        "lon": 107.08439209622387,
        "alt_km": 627.798762031367,
        "timestamp": "2025-12-23T11:34:48.554370+00:00",
        "meta_object_name": "COSMOS 2251 DEB",
        "meta_object_id": "1993-036KT",
        "meta_epoch": "2025-12-22T07:41:52.844928",
        "meta_mean_motion": 14.65152033,
        "meta_eccentricity": 0.00848802,
        "meta_inclination": 74.0366,
        "meta_ra_of_asc_node": 100.2006,
        "meta_arg_of_pericenter": 354.3443,
        "meta_mean_anomaly": 30.168,
        "meta_ephemeris_type": 0,
        "meta_classification_type": "U",
        "meta_norad_cat_id": 34122,
        "meta_element_set_no": 999,
        "meta_rev_at_epoch": 88825,
        "meta_bstar": 0.0010197374,
        "meta_mean_motion_dot": 5.753e-05,
        "meta_mean_motion_ddot": 0,
        "tle_line1": "1 34122U 93036KT  25356.32075052  .00005753  00000+0  10197-2 0  9997",
        "tle_line2": "2 34122  74.0366 100.2006 0084880 354.3443  30.1680 14.65152033888252"
      },
      "geometry": {
        "type": "Point",
        "coordinates": [
          107.08439209622387,
          28.96997776588218
        ]
      }
    },
    {
      "type": "Feature",
      "properties": {
        "norad_id": 34127,
        "name": "COSMOS 2251 DEB",
        "group": "cosmos-2251-debris",
        "lat": 73.23513637063733,
        "lon": 94.70386063136814,
        "alt_km": 839.4488125966836,
        "timestamp": "2025-12-23T11:34:48.554379+00:00",
        "meta_object_name": "COSMOS 2251 DEB",
        "meta_object_id": "1993-036KY",
        "meta_epoch": "2025-12-23T03:03:36.343008",
        "meta_mean_motion": 14.31632803,
        "meta_eccentricity": 0.0114746,
        "meta_inclination": 74.1796,
        "meta_ra_of_asc_node": 25.0893,
        "meta_arg_of_pericenter": 223.0247,
        "meta_mean_anomaly": 193.3806,
        "meta_ephemeris_type": 0,
        "meta_classification_type": "U",
        "meta_norad_cat_id": 34127,
        "meta_element_set_no": 999,
        "meta_rev_at_epoch": 86920,
        "meta_bstar": 0.0016279,
        "meta_mean_motion_dot": 4.639e-05,
        "meta_mean_motion_ddot": 0,
        "tle_line1": "1 34127U 93036KY  25357.12750397  .00004639  00000+0  16279-2 0  9992",
        "tle_line2": "2 34127  74.1796  25.0893 0114746 223.0247 193.3806 14.31632803869209"
      },
      "geometry": {
        "type": "Point",
        "coordinates": [
          94.70386063136814,
          73.23513637063733
        ]
      }
    },
    {
      "type": "Feature",
      "properties": {
        "norad_id": 34128,
        "name": "COSMOS 2251 DEB",
        "group": "cosmos-2251-debris",
        "lat": 66.2897700898546,
        "lon": 53.99650319514634,
        "alt_km": 553.1489706932407,
        "timestamp": "2025-12-23T11:34:48.554388+00:00",
        "meta_object_name": "COSMOS 2251 DEB",
        "meta_object_id": "1993-036KZ",
        "meta_epoch": "2025-12-23T03:24:06.152832",
        "meta_mean_motion": 15.01539861,
        "meta_eccentricity": 0.0025951,
        "meta_inclination": 73.9994,
        "meta_ra_of_asc_node": 275.489,
        "meta_arg_of_pericenter": 25.1463,
        "meta_mean_anomaly": 40.9847,
        "meta_ephemeris_type": 0,
        "meta_classification_type": "U",
        "meta_norad_cat_id": 34128,
        "meta_element_set_no": 999,
        "meta_rev_at_epoch": 89323,
        "meta_bstar": 0.0016007,
        "meta_mean_motion_dot": 0.00020901,
        "meta_mean_motion_ddot": 0,
        "tle_line1": "1 34128U 93036KZ  25357.14173788  .00020901  00000+0  16007-2 0  9997",
        "tle_line2": "2 34128  73.9994 275.4890 0025951  25.1463  40.9847 15.01539861893235"
      },
      "geometry": {
        "type": "Point",
        "coordinates": [
          53.99650319514634,
          66.2897700898546
        ]
      }
    },
    {
      "type": "Feature",
      "properties": {
        "norad_id": 34129,
        "name": "COSMOS 2251 DEB",
        "group": "cosmos-2251-debris",
        "lat": 57.7945944204888,
        "lon": 111.4700206259155,
        "alt_km": 632.7944643577684,
        "timestamp": "2025-12-23T11:34:48.554396+00:00",
        "meta_object_name": "COSMOS 2251 DEB",
        "meta_object_id": "1993-036LA",
        "meta_epoch": "2025-12-22T15:31:38.733312",
        "meta_mean_motion": 14.75903112,
        "meta_eccentricity": 0.00334138,
        "meta_inclination": 74.0354,
        "meta_ra_of_asc_node": 320.1368,
        "meta_arg_of_pericenter": 38.594,
        "meta_mean_anomaly": 321.7613,
        "meta_ephemeris_type": 0,
        "meta_classification_type": "U",
        "meta_norad_cat_id": 34129,
        "meta_element_set_no": 999,
        "meta_rev_at_epoch": 61444,
        "meta_bstar": 0.001516022,
        "meta_mean_motion_dot": 0.00010494,
        "meta_mean_motion_ddot": 0,
        "tle_line1": "1 34129U 93036LA  25356.64697608  .00010494  00000+0  15160-2 0  9999",
        "tle_line2": "2 34129  74.0354 320.1368 0033413  38.5940 321.7613 14.75903112614445"
      },
      "geometry": {
        "type": "Point",
        "coordinates": [
          111.4700206259155,
          57.7945944204888
        ]
      }
    },
    {
      "type": "Feature",
      "properties": {
        "norad_id": 34136,
        "name": "COSMOS 2251 DEB",
        "group": "cosmos-2251-debris",
        "lat": 69.57274695532917,
        "lon": 71.74702333963874,
        "alt_km": 595.5245512155925,
        "timestamp": "2025-12-23T11:34:48.554406+00:00",
        "meta_object_name": "COSMOS 2251 DEB",
        "meta_object_id": "1993-036LH",
        "meta_epoch": "2025-12-23T01:38:17.073024",
        "meta_mean_motion": 14.80141649,
        "meta_eccentricity": 0.0085104,
        "meta_inclination": 74.0198,
        "meta_ra_of_asc_node": 22.2612,
        "meta_arg_of_pericenter": 142.4004,
        "meta_mean_anomaly": 249.1876,
        "meta_ephemeris_type": 0,
        "meta_classification_type": "U",
        "meta_norad_cat_id": 34136,
        "meta_element_set_no": 999,
        "meta_rev_at_epoch": 90163,
        "meta_bstar": 0.00037845,
        "meta_mean_motion_dot": 3.02e-05,
        "meta_mean_motion_ddot": 0,
        "tle_line1": "1 34136U 93036LH  25357.06825316  .00003020  00000+0  37845-3 0  9995",
        "tle_line2": "2 34136  74.0198  22.2612 0085104 142.4004 249.1876 14.80141649901630"
      },
      "geometry": {
        "type": "Point",
        "coordinates": [
          71.74702333963874,
          69.57274695532917
        ]
      }
    },
    {
      "type": "Feature",
      "properties": {
        "norad_id": 34139,
        "name": "COSMOS 2251 DEB",
        "group": "cosmos-2251-debris",
        "lat": 63.73899855623367,
        "lon": -90.93401677062818,
        "alt_km": 706.7715162056866,
        "timestamp": "2025-12-23T11:34:48.554414+00:00",
        "meta_object_name": "COSMOS 2251 DEB",
        "meta_object_id": "1993-036LL",
        "meta_epoch": "2025-12-23T01:56:43.183968",
        "meta_mean_motion": 14.59188306,
        "meta_eccentricity": 0.0042441,
        "meta_inclination": 74.0298,
        "meta_ra_of_asc_node": 234.3507,
        "meta_arg_of_pericenter": 303.7908,
        "meta_mean_anomaly": 176.7427,
        "meta_ephemeris_type": 0,
        "meta_classification_type": "U",
        "meta_norad_cat_id": 34139,
        "meta_element_set_no": 999,
        "meta_rev_at_epoch": 88300,
        "meta_bstar": 0.0014077,
        "meta_mean_motion_dot": 6.696e-05,
        "meta_mean_motion_ddot": 0,
        "tle_line1": "1 34139U 93036LL  25357.08105537  .00006696  00000+0  14077-2 0  9999",
        "tle_line2": "2 34139  74.0298 234.3507 0042441 303.7908 176.7427 14.59188306883009"
      },
      "geometry": {
        "type": "Point",
        "coordinates": [
          -90.93401677062818,
          63.73899855623367
        ]
      }
    }
  ]
}